{
  "type": "FeatureCollection",
  "features": [
    {
      "type": "Feature",
      "properties": {
        "norad_id": 40376,
        "name": "SMAP",
        "group": "resource",
        "lat": -9.708337231630436,
        "lon": -176.273867662523,
        "alt_km": 686.6304472885868,
        "timestamp": "2025-12-26T14:28:47.346317+00:00",
        "meta_object_name": "SMAP",
        "meta_object_id": "2015-003A",
        "meta_epoch": "2025-12-26T07:03:05.996160",
        "meta_mean_motion": 14.6336149,
        "meta_eccentricity": 0.00012377,
        "meta_inclination": 98.1291,
        "meta_ra_of_asc_node": 4.8223,
        "meta_arg_of_pericenter": 92.3731,
        "meta_mean_anomaly": 267.7613,
        "meta_ephemeris_type": 0,
        "meta_classification_type": "U",
        "meta_norad_cat_id": 40376,
        "meta_element_set_no": 999,
        "meta_rev_at_epoch": 58233,
        "meta_bstar": 0.00012049136,
        "meta_mean_motion_dot": 5.76e-06,
        "meta_mean_motion_ddot": 0,
        "tle_line1": "1 40376U 15003A   25360.29381940  .00000576  00000+0  12049-3 0  9997",
        "tle_line2": "2 40376  98.1291   4.8223 0001237  92.3731 267.7613 14.63361490582339"
      },
      "geometry": {
        "type": "Point",
        "coordinates": [
          -176.273867662523,
          -9.708337231630436
        ]
      }
    },
    {
      "type": "Feature",
      "properties": {
        "norad_id": 40536,
        "name": "KOMPSAT-3A",
        "group": "resource",
        "lat": -49.865206372302474,
        "lon": -15.067657773412837,
        "alt_km": 443.1569745668867,
        "timestamp": "2025-12-26T14:28:47.346327+00:00",
        "meta_object_name": "KOMPSAT-3A",
        "meta_object_id": "2015-014A",
        "meta_epoch": "2025-12-26T06:55:24.201120",
        "meta_mean_motion": 15.44445849,
        "meta_eccentricity": 0.00056418,
        "meta_inclination": 97.6808,
        "meta_ra_of_asc_node": 335.3886,
        "meta_arg_of_pericenter": 98.1238,
        "meta_mean_anomaly": 262.0649,
        "meta_ephemeris_type": 0,
        "meta_classification_type": "U",
        "meta_norad_cat_id": 40536,
        "meta_element_set_no": 999,
        "meta_rev_at_epoch": 59504,
        "meta_bstar": 0.00043777135,
        "meta_mean_motion_dot": 0.00020198,
        "meta_mean_motion_ddot": 0,
        "tle_line1": "1 40536U 15014A   25360.28847455  .00020198  00000+0  43777-3 0  9998",
        "tle_line2": "2 40536  97.6808 335.3886 0005641  98.1238 262.0649 15.44445849595041"
      },
      "geometry": {
        "type": "Point",
        "coordinates": [
          -15.067657773412837,
          -49.865206372302474
        ]
      }
    },
    {
      "type": "Feature",
      "properties": {
        "norad_id": 40697,
        "name": "SENTINEL-2A",
        "group": "resource",
        "lat": -55.701129613375315,
        "lon": -119.83405255403157,
        "alt_km": 796.6856411183298,
        "timestamp": "2025-12-26T14:28:47.346338+00:00",
        "meta_object_name": "SENTINEL-2A",
        "meta_object_id": "2015-028A",
        "meta_epoch": "2025-12-26T06:39:50.874624",
        "meta_mean_motion": 14.3081042,
        "meta_eccentricity": 0.00010423,
        "meta_inclination": 98.5725,
        "meta_ra_of_asc_node": 72.6206,
        "meta_arg_of_pericenter": 88.6594,
        "meta_mean_anomaly": 271.4708,
        "meta_ephemeris_type": 0,
        "meta_classification_type": "U",
        "meta_norad_cat_id": 40697,
        "meta_element_set_no": 999,
        "meta_rev_at_epoch": 54900,
        "meta_bstar": 1.9676147e-05,
        "meta_mean_motion_dot": 8e-08,
        "meta_mean_motion_ddot": 0,
        "tle_line1": "1 40697U 15028A   25360.27767216  .00000008  00000+0  19676-4 0  9996",
        "tle_line2": "2 40697  98.5725  72.6206 0001042  88.6594 271.4708 14.30810420549004"
      },
      "geometry": {
        "type": "Point",
        "coordinates": [
          -119.83405255403157,
          -55.701129613375315
        ]
      }
    },
    {
      "type": "Feature",
      "properties": {
        "norad_id": 40701,
        "name": "GAOFEN-8",
        "group": "resource",
        "lat": -79.77497013311853,
        "lon": -49.092067611015025,
        "alt_km": 464.0879313886262,
        "timestamp": "2025-12-26T14:28:47.346348+00:00",
        "meta_object_name": "GAOFEN-8",
        "meta_object_id": "2015-030A",
        "meta_epoch": "2025-12-26T07:05:54.202272",
        "meta_mean_motion": 15.39041927,
        "meta_eccentricity": 0.00115625,
        "meta_inclination": 97.6904,
        "meta_ra_of_asc_node": 179.1017,
        "meta_arg_of_pericenter": 91.7114,
        "meta_mean_anomaly": 268.5455,
        "meta_ephemeris_type": 0,
        "meta_classification_type": "U",
        "meta_norad_cat_id": 40701,
        "meta_element_set_no": 999,
        "meta_rev_at_epoch": 58479,
        "meta_bstar": 0.00052587805,
        "meta_mean_motion_dot": 0.0002032,
        "meta_mean_motion_ddot": 0,
        "tle_line1": "1 40701U 15030A   25360.29576623  .00020320  00000+0  52588-3 0  9994",
        "tle_line2": "2 40701  97.6904 179.1017 0011562  91.7114 268.5455 15.39041927584792"
      },
      "geometry": {
        "type": "Point",
        "coordinates": [
          -49.092067611015025,
          -79.77497013311853
        ]
      }
    },
    {
      "type": "Feature",
      "properties": {
        "norad_id": 40718,
        "name": "CARBONITE 1 (CBNT-1)",
        "group": "resource",
        "lat": -74.38585785255388,
        "lon": -150.25409332235674,
        "alt_km": 636.8622021744704,
        "timestamp": "2025-12-26T14:28:47.346358+00:00",
        "meta_object_name": "CARBONITE 1 (CBNT-1)",
        "meta_object_id": "2015-032D",
        "meta_epoch": "2025-12-26T06:43:36.865056",
        "meta_mean_motion": 14.82805096,
        "meta_eccentricity": 0.00154399,
        "meta_inclination": 97.6409,
        "meta_ra_of_asc_node": 180.7285,
        "meta_arg_of_pericenter": 137.8038,
        "meta_mean_anomaly": 222.4368,
        "meta_ephemeris_type": 0,
        "meta_classification_type": "U",
        "meta_norad_cat_id": 40718,
        "meta_element_set_no": 999,
        "meta_rev_at_epoch": 56371,
        "meta_bstar": 0.00013670974,
        "meta_mean_motion_dot": 1.057e-05,
        "meta_mean_motion_ddot": 0,
        "tle_line1": "1 40718U 15032D   25360.28028779  .00001057  00000+0  13671-3 0  9993",
        "tle_line2": "2 40718  97.6409 180.7285 0015439 137.8038 222.4368 14.82805096563712"
      },
      "geometry": {
        "type": "Point",
        "coordinates": [
          -150.25409332235674,
          -74.38585785255388
        ]
      }
    },
    {
      "type": "Feature",
      "properties": {
        "norad_id": 40878,
        "name": "YAOGAN-27",
        "group": "resource",
        "lat": -44.322143864276825,
        "lon": -0.3768774456312539,
        "alt_km": 1203.6614762314339,
        "timestamp": "2025-12-26T14:28:47.346369+00:00",
        "meta_object_name": "YAOGAN-27",
        "meta_object_id": "2015-040A",
        "meta_epoch": "2025-12-26T07:24:39.663360",
        "meta_mean_motion": 13.16061753,
        "meta_eccentricity": 0.00075821,
        "meta_inclination": 100.1024,
        "meta_ra_of_asc_node": 349.3154,
        "meta_arg_of_pericenter": 253.2621,
        "meta_mean_anomaly": 106.7661,
        "meta_ephemeris_type": 0,
        "meta_classification_type": "U",
        "meta_norad_cat_id": 40878,
        "meta_element_set_no": 999,
        "meta_rev_at_epoch": 49492,
        "meta_bstar": 8.131929e-05,
        "meta_mean_motion_dot": -1.1e-07,
        "meta_mean_motion_ddot": 0,
        "tle_line1": "1 40878U 15040A   25360.30879240 -.00000011  00000+0  81319-4 0  9994",
        "tle_line2": "2 40878 100.1024 349.3154 0007582 253.2621 106.7661 13.16061753494927"
      },
      "geometry": {
        "type": "Point",
        "coordinates": [
          -0.3768774456312539,
          -44.322143864276825
        ]
      }
    },
    {
      "type": "Feature",
      "properties": {
        "norad_id": 40894,
        "name": "GAOFEN-9 01",
        "group": "resource",
        "lat": -7.588922550534231,
        "lon": -142.06738310161882,
        "alt_km": 643.6873881399397,
        "timestamp": "2025-12-26T14:28:47.346379+00:00",
        "meta_object_name": "GAOFEN-9 01",
        "meta_object_id": "2015-047A",
        "meta_epoch": "2025-12-26T07:09:21.914784",
        "meta_mean_motion": 14.82454831,
        "meta_eccentricity": 0.00272818,
        "meta_inclination": 97.6526,
        "meta_ra_of_asc_node": 38.6671,
        "meta_arg_of_pericenter": 350.3247,
        "meta_mean_anomaly": 9.7438,
        "meta_ephemeris_type": 0,
        "meta_classification_type": "U",
        "meta_norad_cat_id": 40894,
        "meta_element_set_no": 999,
        "meta_rev_at_epoch": 55457,
        "meta_bstar": 0.00015392532,
        "meta_mean_motion_dot": 1.191e-05,
        "meta_mean_motion_ddot": 0,
        "tle_line1": "1 40894U 15047A   25360.29817031  .00001191  00000+0  15393-3 0  9994",
        "tle_line2": "2 40894  97.6526  38.6671 0027281 350.3247   9.7438 14.82454831554574"
      },
      "geometry": {
        "type": "Point",
        "coordinates": [
          -142.06738310161882,
          -7.588922550534231
        ]
      }
    }
  ]
}